NORAD_CAT_ID,OBJECT_NAME,OBJECT_TYPE,EPOCH,MEAN_MOTION,ECCENTRICITY,INCLINATION,RA_OF_ASC_NODE,ARG_OF_PERICENTER,MEAN_ANOMALY,BSTAR,MEAN_MOTION_DOT,MEAN_MOTION_DDOT,TLE_LINE0,TLE_LINE1,TLE_LINE2,SEMIMAJOR_AXIS,PERIOD,APOGEE,PERIGEE,DECAYED
55914.0,STARLINK-5856,PAYLOAD,2024-01-01 12:12:52,14.98327183,0.0003218,69.9996,157.1063,284.1074,75.9727,3.1612e-05,2.84e-06,0.0,0 STARLINK-5856,1 55914U 23037A   24001.50894303  .00000284  00000-0  31612-4 0  9999,2 55914  69.9996 157.1063 0003218 284.1074  75.9727 14.98327183 44266,6950.202,96.107,574.303,569.83,0.0
55914.0,STARLINK-5856,PAYLOAD,2024-01-01 13:49:00,14.98327368,0.0003315,69.9994,156.9381,284.6252,75.454,2.1674e-05,1.66e-06,0.0,0 STARLINK-5856,1 55914U 23037A   24001.57570322  .00000166  00000-0  21674-4 0  9994,2 55914  69.9994 156.9381 0003315 284.6252  75.4540 14.98327368 44628,6950.201,96.107,574.37,569.762,0.0
55914.0,STARLINK-5856,PAYLOAD,2024-01-01 20:13:33,14.98321079,0.0002617,70.0002,156.265,264.7012,95.3848,-2.4944e-05,-3.9e-06,0.0,0 STARLINK-5856,1 55914U 23037A   24001.84274911 -.00000390  00000-0 -24944-4 0  9993,2 55914  70.0002 156.2650 0002617 264.7012  95.3848 14.98321079 44311,6950.22,96.108,573.904,570.267,0.0
55914.0,STARLINK-5856,PAYLOAD,2024-01-02 12:14:53,14.98324439,0.000277,69.9994,154.58,272.0839,88.0003,0.0001396,1.573e-05,0.0,0 STARLINK-5856,1 55914U 23037A   24002.51034558  .00001573  00000-0  13960-3 0  9996,2 55914  69.9994 154.5800 0002770 272.0839  88.0003 14.98324439 44411,6950.21,96.107,574.0,570.15,0.0
55914.0,STARLINK-5856,PAYLOAD,2024-01-02 13:51:01,14.98324509,0.0002795,69.9994,154.4118,270.8898,89.1941,0.00013252,1.488e-05,0.0,0 STARLINK-5856,1 55914U 23037A   24002.57710583  .00001488  00000-0  13252-3 0  9990,2 55914  69.9994 154.4118 0002795 270.8898  89.1941 14.98324509 44770,6950.21,96.107,574.017,570.132,0.0
55914.0,STARLINK-5856,PAYLOAD,2024-01-02 20:15:33,14.98329686,0.0002626,69.9999,153.739,271.9384,88.1474,0.00017971,2.052e-05,0.0,0 STARLINK-5856,1 55914U 23037A   24002.84414207  .00002052  00000-0  17971-3 0  9994,2 55914  69.9999 153.7390 0002626 271.9384  88.1474 14.98329686 44810,6950.194,96.107,573.884,570.234,0.0
55914.0,STARLINK-5856,PAYLOAD,2024-01-03 12:16:53,14.98338296,0.000214,69.9996,152.0559,272.9121,87.1793,0.00014065,1.586e-05,0.0,0 STARLINK-5856,1 55914U 23037A   24003.51173532  .00001586  00000-0  14065-3 0  9994,2 55914  69.9996 152.0559 0002140 272.9121  87.1793 14.98338296 44569,6950.167,96.106,573.52,570.545,0.0
55914.0,STARLINK-5856,PAYLOAD,2024-01-03 13:53:01,14.98338289,0.0002138,69.9996,151.8876,272.1362,87.9552,0.00013868,1.562e-05,0.0,0 STARLINK-5856,1 55914U 23037A   24003.57849505  .00001562  00000-0  13868-3 0  9994,2 55914  69.9996 151.8876 0002138 272.1362  87.9552 14.98338289 44927,6950.167,96.106,573.518,570.546,0.0
55914.0,STARLINK-5856,PAYLOAD,2024-01-03 18:41:25,14.98341619,0.0002512,69.9997,151.3828,279.882,80.2055,0.00016464,1.873e-05,0.0,0 STARLINK-5856,1 55914U 23037A   24003.77877139  .00001873  00000-0  16464-3 0  9990,2 55914  69.9997 151.3828 0002512 279.8820  80.2055 14.98341619 44957,6950.157,96.106,573.768,570.276,0.0
55914.0,STARLINK-5856,PAYLOAD,2024-01-04 12:18:55,14.98333859,0.0002605,70.0,149.532,269.6999,90.3861,-1.4249e-06,-1.1e-06,0.0,0 STARLINK-5856,1 55914U 23037A   24004.51313700 -.00000110  00000-0 -14249-5 0  9998,2 55914  70.0000 149.5320 0002605 269.6999  90.3861 14.98333859 44716,6950.181,96.107,573.856,570.235,0.0
55914.0,STARLINK-5856,PAYLOAD,2024-01-04 13:55:03,14.98333262,0.0002614,70.0001,149.3637,269.1124,90.9735,-9.683e-06,-2.08e-06,0.0,0 STARLINK-5856,1 55914U 23037A   24004.57989724 -.00000208  00000-0 -96830-5 0  9993,2 55914  70.0001 149.3637 0002614 269.1124  90.9735 14.98333262 45075,6950.183,96.107,573.865,570.231,0.0
55914.0,STARLINK-5856,PAYLOAD,2024-01-04 18:43:27,14.98332016,0.000265,70.0001,148.8588,270.0343,90.0513,-2.7047e-05,-4.16e-06,0.0,0 STARLINK-5856,1 55914U 23037A   24004.78017801 -.00000416  00000-0 -27047-4 0  9998,2 55914  70.0001 148.8588 0002650 270.0343  90.0513 14.98332016 45103,6950.187,96.107,573.893,570.21,0.0
55914.0,STARLINK-5856,PAYLOAD,2024-01-05 12:20:55,14.98336585,0.000265,70.0002,147.0074,267.4244,92.6612,-5.0886e-05,-7e-06,0.0,0 STARLINK-5856,1 55914U 23037A   24005.51453292 -.00000700  00000-0 -50886-4 0  9991,2 55914  70.0002 147.0074 0002650 267.4244  92.6612 14.98336585 44860,6950.173,96.107,573.879,570.196,0.0
55914.0,STARLINK-5856,PAYLOAD,2024-01-05 13:57:03,14.9833588,0.0002662,70.0002,146.8391,267.2347,92.8507,-5.8583e-05,-7.92e-06,0.0,0 STARLINK-5856,1 55914U 23037A   24005.58129328 -.00000792  00000-0 -58583-4 0  9991,2 55914  70.0002 146.8391 0002662 267.2347  92.8507 14.98335880 45227,6950.175,96.107,573.89,570.19,0.0
55914.0,STARLINK-5856,PAYLOAD,2024-01-05 18:45:27,14.983363,0.0002694,70.0002,146.334,269.1344,90.9506,-5.3033e-05,-7.26e-06,0.0,0 STARLINK-5856,1 55914U 23037A   24005.78157214 -.00000726  00000-0 -53033-4 0  9990,2 55914  70.0002 146.3340 0002694 269.1344  90.9506 14.98336300 45258,6950.173,96.107,573.911,570.166,0.0
55914.0,STARLINK-5856,PAYLOAD,2024-01-06 12:22:56,14.98331411,0.0002799,70.0002,144.4828,266.892,93.1919,4.8538e-05,4.86e-06,0.0,0 STARLINK-5856,1 55914U 23037A   24006.51593050  .00000486  00000-0  48538-4 0  9999,2 55914  70.0002 144.4828 0002799 266.8920  93.1919 14.98331411 45013,6950.189,96.107,573.999,570.108,0.0
55914.0,STARLINK-5856,PAYLOAD,2024-01-06 18:47:28,14.98332777,0.0002801,70.0003,143.8098,268.3198,91.764,6.1405e-05,6.4e-06,0.0,0 STARLINK-5856,1 55914U 23037A   24006.78296919  .00000640  00000-0  61405-4 0  9992,2 55914  70.0003 143.8098 0002801 268.3198  91.7640 14.98332777 45408,6950.184,96.107,573.996,570.103,0.0
55914.0,STARLINK-5856,PAYLOAD,2024-01-07 14:01:05,14.98328804,0.0002684,70.0006,141.7902,263.9064,96.1789,1.1934e-05,4.9e-07,0.0,0 STARLINK-5856,1 55914U 23037A   24007.58409287  .00000049  00000-0  11934-4 0  9990,2 55914  70.0006 141.7902 0002684 263.9064  96.1789 14.98328804 45526,6950.197,96.107,573.927,570.196,0.0
55914.0,STARLINK-5856,PAYLOAD,2024-01-07 18:49:29,14.98331385,0.0002783,70.0006,141.2856,267.2511,92.8329,2.3739e-05,1.9e-06,0.0,0 STARLINK-5856,1 55914U 23037A   24007.78437089  .00000190  00000-0  23739-4 0  9996,2 55914  70.0006 141.2856 0002783 267.2511  92.8329 14.98331385 45209,6950.189,96.107,573.988,570.119,0.0
55914.0,STARLINK-5856,PAYLOAD,2024-01-08 14:03:06,14.9832948,0.0002541,70.0009,139.2667,255.6695,104.4182,1.8234e-06,-7.1e-07,0.0,0 STARLINK-5856,1 55914U 23037A   24008.58549213 -.00000071  00000-0  18234-5 0  9992,2 55914  70.0009 139.2667 0002541 255.6695 104.4182 14.98329480 45676,6950.194,96.107,573.826,570.293,0.0
55914.0,STARLINK-5856,PAYLOAD,2024-01-08 18:51:30,14.9833687,0.0002556,70.0008,138.7617,265.6153,94.4714,-0.00011136,-1.422e-05,0.0,0 STARLINK-5856,1 55914U 23037A   24008.78577020 -.00001422  00000-0 -11136-3 0  9995,2 55914  70.0008 138.7617 0002556 265.6153  94.4714 14.98336870 45355,6950.172,96.107,573.813,570.26,0.0
55914.0,STARLINK-5856,PAYLOAD,2024-01-09 14:05:07,14.98331649,0.0002863,70.0006,136.7408,264.9379,95.1453,4.8039e-05,4.8e-06,0.0,0 STARLINK-5856,1 55914U 23037A   24009.58688902  .00000480  00000-0  48039-4 0  9990,2 55914  70.0006 136.7408 0002863 264.9379  95.1453 14.98331649 45821,6950.188,96.107,574.043,570.063,0.0
55914.0,STARLINK-5856,PAYLOAD,2024-01-09 18:53:31,14.98335469,0.0002824,70.0007,136.236,266.2689,93.8147,9.0246e-05,9.84e-06,0.0,0 STARLINK-5856,1 55914U 23037A   24009.78716521  .00000984  00000-0  90246-4 0  9997,2 55914  70.0007 136.2360 0002824 266.2689  93.8147 14.98335469 45504,6950.176,96.107,574.004,570.078,0.0
55914.0,STARLINK-5856,PAYLOAD,2024-01-10 10:54:52,14.98330234,0.0002749,70.0009,134.553,267.0684,93.0161,4.9207e-05,4.94e-06,0.0,0 STARLINK-5856,1 55914U 23037A   24010.45476863  .00000494  00000-0  49207-4 0  9992,2 55914  70.0009 134.5530 0002749 267.0684  93.0161 14.98330234 45600,6950.192,96.107,573.968,570.147,0.0
55914.0,STARLINK-5856,PAYLOAD,2024-01-11 10:56:53,14.98329405,0.0002706,70.0008,132.0278,258.6753,101.4102,-1.6651e-05,-2.92e-06,0.0,0 STARLINK-5856,1 55914U 23037A   24011.45617013 -.00000292  00000-0 -16651-4 0  9992,2 55914  70.0008 132.0278 0002706 258.6753 101.4102 14.98329405 45750,6950.195,96.107,573.94,570.179,0.0
55914.0,STARLINK-5856,PAYLOAD,2024-01-11 14:09:09,14.98327458,0.0002883,70.0009,131.6917,261.1862,98.8971,-1.2188e-05,-2.38e-06,0.0,0 STARLINK-5856,1 55914U 23037A   24011.58969127 -.00000238  00000-0 -12188-4 0  9993,2 55914  70.0009 131.6917 0002883 261.1862  98.8971 14.98327458 46123,6950.201,96.107,574.069,570.062,0.0
55914.0,STARLINK-5856,PAYLOAD,2024-01-11 17:21:25,14.98332582,0.0003015,70.0,131.3534,266.4779,93.6035,5.628e-08,-9.2e-07,0.0,0 STARLINK-5856,1 55914U 23037A   24011.72320797 -.00000092  00000-0  56280-7 0  9994,2 55914  70.0000 131.3534 0003015 266.4779  93.6035 14.98332582 46149,6950.185,96.107,574.145,569.954,0.0
55914.0,STARLINK-5856,PAYLOAD,2024-01-12 10:58:54,14.98325298,0.000269,70.0005,129.5025,260.0144,100.0711,-2.6566e-05,-4.1e-06,0.0,0 STARLINK-5856,1 55914U 23037A   24012.45757462 -.00000410  00000-0 -26566-4 0  9994,2 55914  70.0005 129.5025 0002690 260.0144 100.0711 14.98325298 45905,6950.207,96.107,573.942,570.203,0.0
55914.0,STARLINK-5856,PAYLOAD,2024-01-12 14:11:10,14.98325027,0.0002827,70.0004,129.1661,265.5703,94.5133,-2.071e-05,-3.4e-06,0.0,0 STARLINK-5856,1 55914U 23037A   24012.59109530 -.00000340  00000-0 -20710-4 0  9993,2 55914  70.0004 129.1661 0002827 265.5703  94.5133 14.98325027 46275,6950.208,96.107,574.038,570.108,0.0
55914.0,STARLINK-5856,PAYLOAD,2024-01-12 17:23:26,14.98326827,0.0002816,70.0006,128.8301,265.9015,94.1822,-1.0763e-05,-2.21e-06,0.0,0 STARLINK-5856,1 55914U 23037A   24012.72461410 -.00000221  00000-0 -10763-4 0  9991,2 55914  70.0006 128.8301 0002816 265.9015  94.1822 14.98326827 46294,6950.203,96.107,574.025,570.111,0.0
